{
  "type": "FeatureCollection",
  "features": [
    {
      "type": "Feature",
      "properties": {
        "norad_id": 32376,
        "name": "COSMO-SKYMED 2",
        "group": "resource",
        "lat": -26.534964352462666,
        "lon": 164.0693512709167,
        "alt_km": 628.7185857709528,
        "timestamp": "2025-12-04T15:47:53.752607+00:00",
        "meta_object_name": "COSMO-SKYMED 2",
        "meta_object_id": "2007-059A",
        "meta_epoch": "2025-12-04T07:49:03.641376",
        "meta_mean_motion": 14.8215064,
        "meta_eccentricity": 0.00015512,
        "meta_inclination": 97.8806,
        "meta_ra_of_asc_node": 159.776,
        "meta_arg_of_pericenter": 88.0855,
        "meta_mean_anomaly": 272.0536,
        "meta_ephemeris_type": 0,
        "meta_classification_type": "U",
        "meta_norad_cat_id": 32376,
        "meta_element_set_no": 999,
        "meta_rev_at_epoch": 97313,
        "meta_bstar": 0.00017549452,
        "meta_mean_motion_dot": 1.345e-05,
        "meta_mean_motion_ddot": 0,
        "tle_line1": "1 32376U 07059A   25338.32573659  .00001345  00000+0  17549-3 0  9994",
        "tle_line2": "2 32376  97.8806 159.7760 0001551  88.0855 272.0536 14.82150640973131"
      },
      "geometry": {
        "type": "Point",
        "coordinates": [
          164.0693512709167,
          -26.534964352462666
        ]
      }
    },
    {
      "type": "Feature",
      "properties": {
        "norad_id": 32382,
        "name": "RADARSAT-2",
        "group": "resource",
        "lat": -2.5190001622508538,
        "lon": -16.253575976523955,
        "alt_km": 795.0612744749078,
        "timestamp": "2025-12-04T15:47:53.752618+00:00",
        "meta_object_name": "RADARSAT-2",
        "meta_object_id": "2007-061A",
        "meta_epoch": "2025-12-04T07:24:49.146624",
        "meta_mean_motion": 14.29984147,
        "meta_eccentricity": 0.00010779,
        "meta_inclination": 98.5799,
        "meta_ra_of_asc_node": 343.0216,
        "meta_arg_of_pericenter": 90.2955,
        "meta_mean_anomaly": 269.8351,
        "meta_ephemeris_type": 0,
        "meta_classification_type": "U",
        "meta_norad_cat_id": 32382,
        "meta_element_set_no": 999,
        "meta_rev_at_epoch": 93810,
        "meta_bstar": 8.3544651e-05,
        "meta_mean_motion_dot": 1.72e-06,
        "meta_mean_motion_ddot": 0,
        "tle_line1": "1 32382U 07061A   25338.30890216  .00000172  00000+0  83545-4 0  9990",
        "tle_line2": "2 32382  98.5799 343.0216 0001077  90.2955 269.8351 14.29984147938105"
      },
      "geometry": {
        "type": "Point",
        "coordinates": [
          -16.253575976523955,
          -2.5190001622508538
        ]
      }
    },
    {
      "type": "Feature",
      "properties": {
        "norad_id": 32783,
        "name": "CARTOSAT-2A",
        "group": "resource",
        "lat": -26.83116460677919,
        "lon": -155.23894308848722,
        "alt_km": 647.2199633179425,
        "timestamp": "2025-12-04T15:47:53.752629+00:00",
        "meta_object_name": "CARTOSAT-2A",
        "meta_object_id": "2008-021A",
        "meta_epoch": "2025-12-04T06:44:47.478048",
        "meta_mean_motion": 14.78913201,
        "meta_eccentricity": 0.00124318,
        "meta_inclination": 97.7943,
        "meta_ra_of_asc_node": 28.3685,
        "meta_arg_of_pericenter": 31.1369,
        "meta_mean_anomaly": 329.0577,
        "meta_ephemeris_type": 0,
        "meta_classification_type": "U",
        "meta_norad_cat_id": 32783,
        "meta_element_set_no": 999,
        "meta_rev_at_epoch": 94999,
        "meta_bstar": 0.00025134086,
        "meta_mean_motion_dot": 1.805e-05,
        "meta_mean_motion_ddot": 0,
        "tle_line1": "1 32783U 08021A   25338.28110507  .00001805  00000+0  25134-3 0  9990",
        "tle_line2": "2 32783  97.7943  28.3685 0012431  31.1369 329.0577 14.78913201949999"
      },
      "geometry": {
        "type": "Point",
        "coordinates": [
          -155.23894308848722,
          -26.83116460677919
        ]
      }
    },
    {
      "type": "Feature",
      "properties": {
        "norad_id": 33320,
        "name": "HUANJING 1A (HJ-1A)",
        "group": "resource",
        "lat": -56.30006322574699,
        "lon": -21.073417612337767,
        "alt_km": 632.2487668011936,
        "timestamp": "2025-12-04T15:47:53.752639+00:00",
        "meta_object_name": "HUANJING 1A (HJ-1A)",
        "meta_object_id": "2008-041A",
        "meta_epoch": "2025-12-04T07:57:37.473408",
        "meta_mean_motion": 14.83353044,
        "meta_eccentricity": 0.00206157,
        "meta_inclination": 97.6532,
        "meta_ra_of_asc_node": 326.9819,
        "meta_arg_of_pericenter": 60.5494,
        "meta_mean_anomaly": 299.7774,
        "meta_ephemeris_type": 0,
        "meta_classification_type": "U",
        "meta_norad_cat_id": 33320,
        "meta_element_set_no": 999,
        "meta_rev_at_epoch": 92951,
        "meta_bstar": 0.00042238216,
        "meta_mean_motion_dot": 3.424e-05,
        "meta_mean_motion_ddot": 0,
        "tle_line1": "1 33320U 08041A   25338.33168372  .00003424  00000+0  42238-3 0  9992",
        "tle_line2": "2 33320  97.6532 326.9819 0020615  60.5494 299.7774 14.83353044929511"
      },
      "geometry": {
        "type": "Point",
        "coordinates": [
          -21.073417612337767,
          -56.30006322574699
        ]
      }
    },
    {
      "type": "Feature",
      "properties": {
        "norad_id": 33321,
        "name": "HUANJING 1B (HJ-1B)",
        "group": "resource",
        "lat": -1.4131660904088872,
        "lon": 150.8231078260909,
        "alt_km": 619.0251112838105,
        "timestamp": "2025-12-04T15:47:53.752650+00:00",
        "meta_object_name": "HUANJING 1B (HJ-1B)",
        "meta_object_id": "2008-041B",
        "meta_epoch": "2025-12-04T06:53:21.063840",
        "meta_mean_motion": 14.8278785,
        "meta_eccentricity": 0.00381676,
        "meta_inclination": 97.6396,
        "meta_ra_of_asc_node": 330.6581,
        "meta_arg_of_pericenter": 102.4885,
        "meta_mean_anomaly": 258.0604,
        "meta_ephemeris_type": 0,
        "meta_classification_type": "U",
        "meta_norad_cat_id": 33321,
        "meta_element_set_no": 999,
        "meta_rev_at_epoch": 92952,
        "meta_bstar": 0.00028057516,
        "meta_mean_motion_dot": 2.246e-05,
        "meta_mean_motion_ddot": 0,
        "tle_line1": "1 33321U 08041B   25338.28704935  .00002246  00000+0  28058-3 0  9993",
        "tle_line2": "2 33321  97.6396 330.6581 0038167 102.4885 258.0604 14.82787850929525"
      },
      "geometry": {
        "type": "Point",
        "coordinates": [
          150.8231078260909,
          -1.4131660904088872
        ]
      }
    },
    {
      "type": "Feature",
      "properties": {
        "norad_id": 33331,
        "name": "GEOEYE 1",
        "group": "resource",
        "lat": -30.059939587107305,
        "lon": 54.78294918629602,
        "alt_km": 681.7038746721864,
        "timestamp": "2025-12-04T15:47:53.752661+00:00",
        "meta_object_name": "GEOEYE 1",
        "meta_object_id": "2008-042A",
        "meta_epoch": "2025-12-04T07:44:22.252992",
        "meta_mean_motion": 14.64795233,
        "meta_eccentricity": 0.00029474,
        "meta_inclination": 98.1262,
        "meta_ra_of_asc_node": 49.708,
        "meta_arg_of_pericenter": 313.5499,
        "meta_mean_anomaly": 46.5459,
        "meta_ephemeris_type": 0,
        "meta_classification_type": "U",
        "meta_norad_cat_id": 33331,
        "meta_element_set_no": 999,
        "meta_rev_at_epoch": 92162,
        "meta_bstar": 0.00024921373,
        "meta_mean_motion_dot": 1.282e-05,
        "meta_mean_motion_ddot": 0,
        "tle_line1": "1 33331U 08042A   25338.32247978  .00001282  00000+0  24921-3 0  9993",
        "tle_line2": "2 33331  98.1262  49.7080 0002947 313.5499  46.5459 14.64795233921624"
      },
      "geometry": {
        "type": "Point",
        "coordinates": [
          54.78294918629602,
          -30.059939587107305
        ]
      }
    },
    {
      "type": "Feature",
      "properties": {
        "norad_id": 33396,
        "name": "THEOS",
        "group": "resource",
        "lat": 44.41171759472489,
        "lon": 28.472169701673977,
        "alt_km": 820.7626065954428,
        "timestamp": "2025-12-04T15:47:53.752672+00:00",
        "meta_object_name": "THEOS",
        "meta_object_id": "2008-049A",
        "meta_epoch": "2025-12-04T08:49:22.452672",
        "meta_mean_motion": 14.20093767,
        "meta_eccentricity": 0.00010976,
        "meta_inclination": 98.588,
        "meta_ra_of_asc_node": 36.7038,
        "meta_arg_of_pericenter": 100.2721,
        "meta_mean_anomaly": 259.858,
        "meta_ephemeris_type": 0,
        "meta_classification_type": "U",
        "meta_norad_cat_id": 33396,
        "meta_element_set_no": 999,
        "meta_rev_at_epoch": 89031,
        "meta_bstar": 9.9166156e-05,
        "meta_mean_motion_dot": 1.69e-06,
        "meta_mean_motion_ddot": 0,
        "tle_line1": "1 33396U 08049A   25338.36762098  .00000169  00000+0  99166-4 0  9997",
        "tle_line2": "2 33396  98.5880  36.7038 0001097 100.2721 259.8580 14.20093767890318"
      },
      "geometry": {
        "type": "Point",
        "coordinates": [
          28.472169701673977,
          44.41171759472489
        ]
      }
    }
  ]
}